QIANFAN-33              
1 61566U 24185Q   25322.47168882  .00000624  00000+0  44193-3 0  9997
2 61566  88.9792  81.5083 0008188  53.8618 306.3316 13.96524798 65771
QIANFAN-34              
1 61567U 24185R   25322.46521809  .00000643  00000+0  41101-3 0  9996
2 61567  88.9768  81.1053 0007325  63.1128 297.0800 14.02275111 65954
QIANFAN-35              
1 61568U 24185S   25322.45116080  .00001177  00000+0  46988-3 0  9998
2 61568  88.9796  79.7254 0006887  23.9643 336.1870 14.27908701 66712
QIANFAN-36              
1 61569U 24185T   25322.45713330  .00000137  00000+0  17988-3 0  9993
2 61569  88.9775  83.5695 0007751 110.8104 249.3881 13.55576467 64637
QIANFAN-37              
1 62238U 24232B   25322.40312131  .00000203  00000+0  29645-3 0  9996
2 62238  89.0041  43.7820 0002344 122.8123 237.3254 13.50984155 95888
QIANFAN-38              
1 62239U 24232C   25322.42773420  .00000197  00000+0  28605-3 0  9998
2 62239  89.0048  43.6937 0012803 262.3726  97.5971 13.50973425 95941
QIANFAN-39              
1 62240U 24232D   25322.41455904  .00000833  00000+0  34713-3 0  9997
2 62240  89.0039  40.0874 0017511 152.3617 207.8511 14.25356793 97924
QIANFAN-40              
1 62241U 24232E   25322.46064644  .00000183  00000+0  26445-3 0  9991
2 62241  89.0075  43.2681 0011723 271.1710  88.8098 13.50973043 96318
